0 PSLV DEB
1 27147U 01049CT  13282.09491045  .00007910  00000-0  98646-3 0   908
2 27147 097.7465 327.0891 0032878 104.4340 285.9876 14.82295974650620
0 PSLV DEB
1 27147U 01049CT  13283.11170153  .00007406  00000-0  92374-3 0   919
2 27147 097.7466 328.0732 0032828 101.2867 311.7049 14.82309898650777
0 PSLV DEB
1 27147U 01049CT  13286.08230738  .00006371  00000-0  79506-3 0   938
2 27147 097.7472 330.9498 0032810 092.0143 323.5241 14.82342667651216
0 PSLV DEB
1 27147U 01049CT  13287.44529855  .00006353  00000-0  79268-3 0   946
2 27147 097.7470 332.2696 0032709 087.7655 036.8690 14.82356150651411
0 PSLV DEB
1 27147U 01049CT  13288.78414333  .00009067  00000-0  11275-2 0   957
2 27147 097.7464 333.5662 0032595 083.5488 341.5015 14.82381586651612
0 PSLV DEB
1 27147U 01049CT  13289.79396782  .00010443  00000-0  12969-2 0   968
2 27147 097.7460 334.5442 0032581 080.4116 330.3703 14.82393774651762
0 PSLV DEB
1 27147U 01049CT  13291.42775233  .00008407  00000-0  10451-2 0   975
2 27147 097.7454 336.1261 0032518 075.2185 049.1852 14.82418264652000
0 PSLV DEB
1 27147U 01049CT  13292.44032424  .00007115  00000-0  88538-3 0   984
2 27147 097.7450 337.1067 0032431 072.0116 052.9115 14.82432973652157
0 PSLV DEB
1 27147U 01049CT  13293.84428494  .00008308  00000-0  10323-2 0   997
2 27147 097.7445 338.4659 0032267 067.5635 345.4232 14.82447314652362
0 PSLV DEB
1 27147U 01049CT  13294.85704444  .00010602  00000-0  13147-2 0  1001
2 27147 097.7444 339.4463 0032240 064.4298 350.1903 14.82461174652512
